[{"OBJECT_NAME":"STARLINK-32510","OBJECT_ID":"2024-216J","EPOCH":"2026-03-09T12:38:39.435648","MEAN_MOTION":15.27549679,"ECCENTRICITY":9.599e-5,"INCLINATION":42.9971,"RA_OF_ASC_NODE":264.7697,"ARG_OF_PERICENTER":195.8026,"MEAN_ANOMALY":164.2795,"EPHEMERIS_TYPE":0,"CLASSIFICATION_TYPE":"U","NORAD_CAT_ID":62040,"ELEMENT_SET_NO":999,"REV_AT_EPOCH":7376,"BSTAR":0.00093471187,"MEAN_MOTION_DOT":0.00025524,"MEAN_MOTION_DDOT":0},{"OBJECT_NAME":"PELICAN-6","OBJECT_ID":"2025-276AP","EPOCH":"2026-03-09T16:58:12.890496","MEAN_MOTION":15.2637798,"ECCENTRICITY":0.0003569,"INCLINATION":97.4276,"RA_OF_ASC_NODE":144.2072,"ARG_OF_PERICENTER":157.8575,"MEAN_ANOMALY":202.2819,"EPHEMERIS_TYPE":0,"CLASSIFICATION_TYPE":"U","NORAD_CAT_ID":66703,"ELEMENT_SET_NO":999,"REV_AT_EPOCH":1533,"BSTAR":0.0029725783,"MEAN_MOTION_DOT":0.00077979,"MEAN_MOTION_DDOT":0}]
